STARLINK-4260           
1 52986U 22076A   26068.44651012  .00001489  00000+0  11158-3 0  9992
2 52986  53.2165  95.2121 0001297 100.1484 259.9654 15.08846027202804
STARLINK-5895           
1 55964U 23037BC  26068.93316413  .00010921  00000+0  72850-3 0  9993
2 55964  69.9972 260.0280 0004986 264.4993  95.5602 15.07243555164606
